H1 CPF  1  HTS 2022  5 23 12  6431 larets           NONE
H2  0304206 5557    27944 2022 05 23  0  0  0 2022 05 28  0  0  0   180 1 1  0 0 0
H5  0.0560 
H9 
10 0 59723  83880.00000  0     870138.741    2083490.888   -6695530.376
10 0 59723  84060.00000  0    1883656.285    2839266.915   -6188268.930
10 0 59723  84240.00000  0    2847095.389    3466254.441   -5455248.854
10 0 59723  84420.00000  0    3721714.373    3943338.474   -4522852.939
10 0 59723  84600.00000  0    4471389.705    4255740.227   -3424846.864
10 0 59723  84780.00000  0    5064144.765    4395521.118   -2201211.954
10 0 59723  84960.00000  0    5473560.172    4361805.582    -896710.038
10 0 59723  85140.00000  0    5679991.227    4160704.749     440770.797
10 0 59723  85320.00000  0    5671521.839    3804938.534    1762022.191
10 0 59723  85500.00000  0    5444601.559    3313167.932    3018394.127
10 0 59723  85680.00000  0    5004320.465    2709070.940    4163658.232
10 0 59723  85860.00000  0    4364305.795    2020213.520    5155762.105
10 0 59723  86040.00000  0    3546257.464    1276782.195    5958393.338
10 0 59723  86220.00000  0    2579147.031     510245.841    6542300.255
10 0 59724      0.00000  0    1498129.377    -247987.934    6886314.367
10 0 59724    180.00000  0     343225.115    -967858.576    6978070.755
10 0 59724    360.00000  0    -842186.423   -1621841.176    6814411.432
10 0 59724    540.00000  0   -2013004.557   -2185993.288    6401462.624
10 0 59724    720.00000  0   -3124115.543   -2640823.708    5754396.875
10 0 59724    900.00000  0   -4132127.905   -2971963.779    4896899.683
10 0 59724   1080.00000  0   -4997083.288   -3170622.472    3860328.155
10 0 59724   1260.00000  0   -5684061.023   -3233800.286    2682584.160
10 0 59724   1440.00000  0   -6164615.782   -3164257.828    1406742.775
10 0 59724   1620.00000  0   -6417983.743   -2970241.005      79469.399
10 0 59724   1800.00000  0   -6431988.942   -2664968.249   -1250713.245
10 0 59724   1980.00000  0   -6203602.744   -2265907.230   -2535234.688
10 0 59724   2160.00000  0   -5739121.945   -1793878.694   -3727279.168
10 0 59724   2340.00000  0   -5053968.298   -1272038.868   -4783499.734
10 0 59724   2520.00000  0   -4172126.668    -724792.664   -5665578.955
10 0 59724   2700.00000  0   -3125253.500    -176690.263   -6341579.999
10 0 59724   2880.00000  0   -1951503.703     348640.610   -6787044.761
10 0 59724   3060.00000  0    -694130.966     829480.211   -6985819.518
10 0 59724   3240.00000  0     600086.434    1246887.289   -6930597.996
10 0 59724   3420.00000  0    1882545.157    1585428.974   -6623182.316
10 0 59724   3600.00000  0    3104607.502    1833749.829   -6074457.599
10 0 59724   3780.00000  0    4219428.232    1984960.938   -5304060.919
10 0 59724   3960.00000  0    5183756.233    2036833.902   -4339752.167
10 0 59724   4140.00000  0    5959655.317    1991793.215   -3216486.316
10 0 59724   4320.00000  0    6516066.254    1856700.295   -1975197.898
10 0 59724   4500.00000  0    6830137.295    1642435.308    -661327.034
10 0 59724   4680.00000  0    6888242.291    1363289.586     676868.743
10 0 59724   4860.00000  0    6686618.765    1036196.671    1990141.833
10 0 59724   5040.00000  0    6231592.113     679843.145    3230136.271
10 0 59724   5220.00000  0    5539362.949     313703.975    4351238.754
10 0 59724   5400.00000  0    4635371.326     -42940.178    5312303.106
10 0 59724   5580.00000  0    3553283.392    -371950.973    6078175.961
10 0 59724   5760.00000  0    2333654.012    -657199.135    6620965.127
10 0 59724   5940.00000  0    1022342.831    -885307.220    6921013.879
10 0 59724   6120.00000  0    -331252.232   -1046243.430    6967566.763
10 0 59724   6300.00000  0   -1676075.553   -1133743.271    6759110.233
10 0 59724   6480.00000  0   -2961337.198   -1145545.272    6303393.580
10 0 59724   6660.00000  0   -4138421.680   -1083433.303    5617142.510
10 0 59724   6840.00000  0   -5162733.773    -953090.187    4725469.915
10 0 59724   7020.00000  0   -5995412.825    -763768.168    3660982.027
10 0 59724   7200.00000  0   -6604840.685    -527786.661    2462605.103
10 0 59724   7380.00000  0   -6967884.809    -259879.653    1174173.067
10 0 59724   7560.00000  0   -7070818.819      23576.996    -157187.788
10 0 59724   7740.00000  0   -6909861.742     305419.536   -1482812.628
10 0 59724   7920.00000  0   -6491308.288     568588.868   -2754309.705
10 0 59724   8100.00000  0   -5831252.614     797013.994   -3925350.693
10 0 59724   8280.00000  0   -4954915.641     976443.474   -4953369.524
10 0 59724   8460.00000  0   -3895617.157    1095181.605   -5801088.869
10 0 59724   8640.00000  0   -2693457.194    1144694.480   -6437825.045
10 0 59724   8820.00000  0   -1393772.027    1120060.665   -6840538.874
10 0 59724   9000.00000  0     -45427.058    1020254.129   -6994612.397
10 0 59724   9180.00000  0    1300989.016     848248.351   -6894341.145
10 0 59724   9360.00000  0    2595020.756     610938.446   -6543148.833
10 0 59724   9540.00000  0    3788209.685     318880.725   -5953504.678
10 0 59724   9720.00000  0    4835900.695     -14144.169   -5146538.490
10 0 59724   9900.00000  0    5698937.072    -371733.031   -4151359.851
10 0 59724  10080.00000  0    6345186.550    -735607.350   -3004078.028
10 0 59724  10260.00000  0    6750823.870   -1086479.312   -1746537.847
10 0 59724  10440.00000  0    6901304.725   -1404997.895    -424803.387
10 0 59724  10620.00000  0    6791967.666   -1672726.442     912557.971
10 0 59724  10800.00000  0    6428222.770   -1873101.056    2216318.718
10 0 59724  10980.00000  0    5825306.749   -1992316.503    3438476.762
10 0 59724  11160.00000  0    5007613.905   -2020087.597    4534089.977
10 0 59724  11340.00000  0    4007645.367   -1950246.456    5462968.185
10 0 59724  11520.00000  0    2864643.880   -1781145.527    6191157.552
10 0 59724  11700.00000  0    1622980.590   -1515851.593    6692161.285
10 0 59724  11880.00000  0     330378.973   -1162125.145    6947860.102
10 0 59724  12060.00000  0    -963949.969    -732186.944    6949117.823
10 0 59724  12240.00000  0   -2211186.971    -242283.151    6696064.974
10 0 59724  12420.00000  0   -3364737.674     287934.586    6198068.291
10 0 59724  12600.00000  0   -4381968.390     836194.175    5473391.058
10 0 59724  12780.00000  0   -5225792.500    1378525.719    4548546.076
10 0 59724  12960.00000  0   -5866048.741    1890290.395    3457351.316
10 0 59724  13140.00000  0   -6280613.252    2347274.024    2239712.000
10 0 59724  13320.00000  0   -6456200.027    2726796.978     940168.035
10 0 59724  13500.00000  0   -6388810.435    3008788.808    -393749.975
10 0 59724  13680.00000  0   -6083800.181    3176770.185   -1713289.630
10 0 59724  13860.00000  0   -5555562.434    3218691.614   -2970292.402
10 0 59724  14040.00000  0   -4826840.888    3127586.173   -4118978.110
10 0 59724  14220.00000  0   -3927713.837    2902002.716   -5117614.456
10 0 59724  14400.00000  0   -2894311.657    2546203.741   -5930004.941
10 0 59724  14580.00000  0   -1767339.218    2070125.995   -6526749.474
10 0 59724  14760.00000  0    -590465.477    1489108.249   -6886250.755
10 0 59724  14940.00000  0     591352.598     823398.457   -6995440.491
10 0 59724  15120.00000  0    1733552.856      97461.236   -6850225.912
10 0 59724  15300.00000  0    2793618.255    -660899.055   -6455649.762
10 0 59724  15480.00000  0    3732641.188   -1421576.467   -5825751.303
10 0 59724  15660.00000  0    4516756.062   -2153331.729   -4983130.941
10 0 59724  15840.00000  0    5118397.261   -2825061.285   -3958217.164
10 0 59724  16020.00000  0    5517328.813   -3407119.531   -2788233.969
10 0 59724  16200.00000  0    5701398.030   -3872634.490   -1515889.308
10 0 59724  16380.00000  0    5666966.852   -4198754.007    -187818.633
10 0 59724  16560.00000  0    5418988.317   -4367756.806    1147158.545
10 0 59724  16740.00000  0    4970712.690   -4367964.065    2439897.234
10 0 59724  16920.00000  0    4343031.310   -4194391.861    3642810.056
10 0 59724  17100.00000  0    3563499.689   -3849110.739    4711679.228
10 0 59724  17280.00000  0    2665093.051   -3341298.841    5607319.426
10 0 59724  17460.00000  0    1684764.331   -2686985.133    6297018.254
10 0 59724  17640.00000  0     661881.578   -1908504.166    6755704.616
10 0 59724  17820.00000  0    -363381.230   -1033694.209    6966812.765
10 0 59724  18000.00000  0   -1351630.879     -94873.249    6922831.240
10 0 59724  18180.00000  0   -2265764.024     872369.265    6625533.659
10 0 59724  18360.00000  0   -3072352.630    1830523.530    6085892.869
10 0 59724  18540.00000  0   -3742863.193    2741609.717    5323683.963
10 0 59724  18720.00000  0   -4254674.040    3568682.420    4366784.751
10 0 59724  18900.00000  0   -4591854.647    4277334.444    3250182.754
10 0 59724  19080.00000  0   -4745674.610    4837139.584    2014714.507
10 0 59724  19260.00000  0   -4714814.685    5222970.550     705572.533
10 0 59724  19440.00000  0   -4505270.993    5416121.823    -629364.831
10 0 59724  19620.00000  0   -4129957.890    5405184.856   -1941315.757
10 0 59724  19800.00000  0   -3608018.496    5186622.496   -3182415.538
10 0 59724  19980.00000  0   -2963886.129    4765015.112   -4307484.337
10 0 59724  20160.00000  0   -2226150.778    4152970.132   -5275666.365
10 0 59724  20340.00000  0   -1426295.367    3370715.417   -6051877.222
10 0 59724  20520.00000  0    -597362.307    2445401.514   -6608025.809
10 0 59724  20700.00000  0     227396.097    1410138.751   -6923974.119
10 0 59724  20880.00000  0    1015826.346     302815.620   -6988216.422
10 0 59724  21060.00000  0    1738102.354    -835264.437   -6798275.808
10 0 59724  21240.00000  0    2367835.905   -1960891.314   -6360805.980
10 0 59724  21420.00000  0    2883035.308   -3030554.901   -5691400.509
10 0 59724  21600.00000  0    3266888.804   -4002112.971   -4814109.958
10 0 59724  21780.00000  0    3508341.634   -4836468.118   -3760649.646
99
